LEMUR-1                 
1 40044U 14033AL  26158.65987850  .00002659  00000+0  30969-3 0  9994
2 40044  97.7870 308.6780 0049702 109.0193 251.6416 14.85208967644053
LEMUR-2-GREENBERG       
1 42837U 17042N   26158.74182727  .00017572  00000+0  58709-3 0  9991
2 42837  97.3822 339.4126 0009442  46.4397 313.7626 15.31038817486943
LEMUR-2-ANDIS           
1 42838U 17042P   26158.46644384  .00022181  00000+0  66499-3 0  9990
2 42838  97.3683 339.2899 0009002  46.6402 313.5589 15.34458844486962
LEMUR-2-MONSON          
1 42839U 17042Q   26158.46824387  .00014665  00000+0  54272-3 0  9998
2 42839  97.4082 339.1273 0007102  39.4672 320.7083 15.27755266486688
LEMUR-2-FURIAUS         
1 42840U 17042R   26158.46729569  .00018073  00000+0  62480-3 0  9993
2 42840  97.3773 337.1173 0008535  98.8266 261.3941 15.29931512486722
LEMUR-2-PETERG          
1 42841U 17042S   26158.50979111  .00023536  00000+0  72753-3 0  9993
2 42841  97.3995 343.5280 0004041  32.5278 327.6212 15.33508998486950
LEMUR-2-DEMBITZ         
1 42842U 17042T   26158.48752655  .00015926  00000+0  54996-3 0  9996
2 42842  97.3828 340.1530 0007536  60.0076 300.1912 15.30002984486865
LEMUR-2-ZACHARY         
1 42845U 17042W   26158.82825110  .00045467  00000+0  82491-3 0  9998
2 42845  97.3614 350.2714 0003550  65.8194 294.3428 15.49457441487750
LEMUR-2-AMANDA-SVANTE   
1 48269U 21034B   26158.18149767  .00031416  00000+0  96376-3 0  9992
2 48269  97.5755 236.2078 0001093 251.8762 108.2361 15.33699325279523
LEMUR-2-SPECIAL-K       
1 48273U 21034F   26158.73914421  .00133441  00000+0  15168-2 0  9995
2 48273  97.5651 244.9337 0003112 238.3924 121.7029 15.61868094280212
LEMUR-2-EMBRIONOVIS     
1 56970U 23084AQ  26158.37380630  .00013073  00000+0  35945-3 0  9998
2 56970  97.6284 302.1993 0008424 358.1631   1.9580 15.37304705166176
LEMUR-2-DEVERILL-M-T    
1 57391U 23100F   26158.68056656  .00028184  00000+0  72349-3 0  9995
2 57391  99.4478 194.6974 0007197  79.8739 280.3312 15.39286601159785
LEMUR-2-BASS            
1 58259U 23174D   26158.74163534  .00017663  00000+0  40496-3 0  9999
2 58259  97.3843 243.3246 0007001 193.3363 166.7700 15.42783084143901
LEMUR-2-JK0903EM1407    
1 58336U 23174CJ  26158.72696285  .00029523  00000+0  50516-3 0  9999
2 58336  97.3907 248.9356 0005671 146.4871 213.6740 15.51199119144261
LEMUR-2-MJR092620       
1 58340U 23174CN  26158.76572844  .00019541  00000+0  42220-3 0  9994
2 58340  97.3968 248.6242 0007021 145.6151 214.5553 15.44530489144192
LEMUR-2-NIMBUS2000      
1 58899U 24022A   26158.85111742  .00017623  00000+0  44704-3 0  9990
2 58899  97.4119   8.7373 0009962 144.7728 215.4178 15.39698015130839
LEMUR-2-VALHALLA        
1 58900U 24022B   26158.84541955  .00016488  00000+0  42259-3 0  9996
2 58900  97.4119   8.7272 0010488 141.0595 219.1408 15.39389886130837
LEMUR-2-OBA-NI-JESU     
1 58902U 24022D   26158.57701095  .01040584  62470-3  12936-2 0  9997
2 58902  97.3725  23.0494 0004394 193.2135 166.9033 16.07905574131787
LEMUR-2-CAEL            
1 58903U 24022E   26158.53832929  .00018172  00000+0  44666-3 0  9995
2 58903  97.4103   9.3352 0009132 125.9318 234.2777 15.40659883130855
LEMUR-2-JOHNNYTRUONG    
1 59146U 24043BA  26158.40069530  .00039294  00000+0  49092-3 0  9990
2 59146  97.5375 309.5039 0004465 206.7400 153.3627 15.59740785126513
LEMUR-2-TOMATOKECHUP    
1 60471U 24149D   26158.66069874  .00010906  00000+0  31503-3 0  9996
2 60471  97.3793 240.6848 0000493 202.7301 157.3921 15.35833085100708
LEMUR-2-STELLA          
1 60533U 24149BT  26158.74870220  .00011654  00000+0  68942-3 0  9997
2 60533  97.6731 241.1641 0001948  99.1476 260.9974 15.11608284 99077
LEMUR-2-MARHISYAM       
1 60536U 24149BW  26158.72562566  .00011710  00000+0  70315-3 0  9999
2 60536  97.6872 241.5804 0003026 135.9742 224.1729 15.11065833 99050
LEMUR-2-AHMED-ASRAR     
1 60576U 24149DN  26158.76879411  .00012492  00000+0  72058-3 0  9991
2 60576  97.6999 243.6804 0002644  64.6020 295.5484 15.12502928 99141
LEMUR-2-LLOYD           
1 60577U 24149DP  26158.75969235  .00010647  00000+0  67580-3 0  9999
2 60577  97.6742 239.8852 0004439 163.1284 197.0093 15.09060098 98974
LEMUR-2-SQUIRRELCOMM    
1 60578U 24149DQ  26158.76106120  .00006776  00000+0  45579-3 0  9999
2 60578  97.6713 239.7030 0006920  87.6413 272.5606 15.07048573 98983
LEMUR-2-SIERRINI        
1 60579U 24149DR  26158.74716593  .00011156  00000+0  67582-3 0  9995
2 60579  97.6837 241.2995 0005022 192.0084 168.1026 15.10750316 99038
LEMUR-2-WILSON          
1 62694U 25009CP  26158.72555027  .00002306  00000+0  21538-3 0  9990
2 62694  97.7026 237.3568 0004668  77.1388 283.0354 14.95128451 75942
LEMUR-2-STAR-FOX        
1 62696U 25009CR  26158.70214785  .00009234  00000+0  70199-3 0  9997
2 62696  97.6944 240.3798 0002784 136.0060 224.1387 15.02362477 76131
LEMUR-2-ARIANNA         
1 62699U 25009CU  26158.50055315  .00009293  00000+0  70684-3 0  9994
2 62699  97.6880 239.9616 0003072 144.1666 215.9765 15.02339837 76108
