OBJECT_NAME,OBJECT_ID,EPOCH,MEAN_MOTION,ECCENTRICITY,INCLINATION,RA_OF_ASC_NODE,ARG_OF_PERICENTER,MEAN_ANOMALY,EPHEMERIS_TYPE,CLASSIFICATION_TYPE,NORAD_CAT_ID,ELEMENT_SET_NO,REV_AT_EPOCH,BSTAR,MEAN_MOTION_DOT,MEAN_MOTION_DDOT
LEMUR-1,2014-033AL,2026-06-07T15:50:13.502400,14.85208967,.0049702,97.7870,308.6780,109.0193,251.6416,0,U,40044,999,64405,.30969E-3,.2659E-4,0
LEMUR-2-GREENBERG,2017-042N,2026-06-07T17:48:13.876128,15.31038817,.0009442,97.3822,339.4126,46.4397,313.7626,0,U,42837,999,48694,.58709E-3,.17572E-3,0
LEMUR-2-ANDIS,2017-042P,2026-06-07T11:11:40.747776,15.34458844,.0009002,97.3683,339.2899,46.6402,313.5589,0,U,42838,999,48696,.66499E-3,.22181E-3,0
LEMUR-2-MONSON,2017-042Q,2026-06-07T11:14:16.270368,15.27755266,.0007102,97.4082,339.1273,39.4672,320.7083,0,U,42839,999,48668,.54272E-3,.14665E-3,0
LEMUR-2-FURIAUS,2017-042R,2026-06-07T11:12:54.347616,15.29931512,.0008535,97.3773,337.1173,98.8266,261.3941,0,U,42840,999,48672,.6248E-3,.18073E-3,0
LEMUR-2-PETERG,2017-042S,2026-06-07T12:14:05.951904,15.33508998,.0004041,97.3995,343.5280,32.5278,327.6212,0,U,42841,999,48695,.72753E-3,.23536E-3,0
LEMUR-2-DEMBITZ,2017-042T,2026-06-07T11:42:02.293920,15.30002984,.0007536,97.3828,340.1530,60.0076,300.1912,0,U,42842,999,48686,.54996E-3,.15926E-3,0
LEMUR-2-ZACHARY,2017-042W,2026-06-07T19:52:40.895040,15.49457441,.000355,97.3614,350.2714,65.8194,294.3428,0,U,42845,999,48775,.82491E-3,.45467E-3,0
LEMUR-2-AMANDA-SVANTE,2021-034B,2026-06-07T04:21:21.398688,15.33699325,.0001093,97.5755,236.2078,251.8762,108.2361,0,U,48269,999,27952,.96376E-3,.31416E-3,0
LEMUR-2-SPECIAL-K,2021-034F,2026-06-07T17:44:22.059744,15.61868094,.0003112,97.5651,244.9337,238.3924,121.7029,0,U,48273,999,28021,.15168E-2,.133441E-2,0
LEMUR-2-EMBRIONOVIS,2023-084AQ,2026-06-07T08:58:16.864320,15.37304705,.0008424,97.6284,302.1993,358.1631,1.9580,0,U,56970,999,16617,.35945E-3,.13073E-3,0
LEMUR-2-DEVERILL-M-T,2023-100F,2026-06-07T16:20:00.950784,15.39286601,.0007197,99.4478,194.6974,79.8739,280.3312,0,U,57391,999,15978,.72349E-3,.28184E-3,0
LEMUR-2-BASS,2023-174D,2026-06-07T17:47:57.293376,15.42783084,.0007001,97.3843,243.3246,193.3363,166.7700,0,U,58259,999,14390,.40496E-3,.17663E-3,0
LEMUR-2-JK0903EM1407,2023-174CJ,2026-06-07T17:26:49.590240,15.51199119,.0005671,97.3907,248.9356,146.4871,213.6740,0,U,58336,999,14426,.50516E-3,.29523E-3,0
LEMUR-2-MJR092620,2023-174CN,2026-06-07T18:22:38.937216,15.44530489,.0007021,97.3968,248.6242,145.6151,214.5553,0,U,58340,999,14419,.4222E-3,.19541E-3,0
LEMUR-2-NIMBUS2000,2024-022A,2026-06-07T20:25:36.545088,15.39698015,.0009962,97.4119,8.7373,144.7728,215.4178,0,U,58899,999,13083,.44704E-3,.17623E-3,0
LEMUR-2-VALHALLA,2024-022B,2026-06-07T20:17:24.249120,15.39389886,.0010488,97.4119,8.7272,141.0595,219.1408,0,U,58900,999,13083,.42259E-3,.16488E-3,0
LEMUR-2-OBA-NI-JESU,2024-022D,2026-06-07T13:50:53.746080,16.07905574,.0004394,97.3725,23.0494,193.2135,166.9033,0,U,58902,999,13178,.12936E-2,.1040584E-1,.6247E-3
LEMUR-2-CAEL,2024-022E,2026-06-07T12:55:11.650656,15.40659883,.0009132,97.4103,9.3352,125.9318,234.2777,0,U,58903,999,13085,.44666E-3,.18172E-3,0
LEMUR-2-JOHNNYTRUONG,2024-043BA,2026-06-07T09:37:00.073920,15.59740785,.0004465,97.5375,309.5039,206.7400,153.3627,0,U,59146,999,12651,.49092E-3,.39294E-3,0
LEMUR-2-TOMATOKECHUP,2024-149D,2026-06-07T15:51:24.371136,15.35833085,.0000493,97.3793,240.6848,202.7301,157.3921,0,U,60471,999,10070,.31503E-3,.10906E-3,0
LEMUR-2-STELLA,2024-149BT,2026-06-07T17:58:07.870080,15.11608284,.0001948,97.6731,241.1641,99.1476,260.9974,0,U,60533,999,9907,.68942E-3,.11654E-3,0
LEMUR-2-MARHISYAM,2024-149BW,2026-06-07T17:24:54.057024,15.11065833,.0003026,97.6872,241.5804,135.9742,224.1729,0,U,60536,999,9905,.70315E-3,.1171E-3,0
LEMUR-2-AHMED-ASRAR,2024-149DN,2026-06-07T18:27:03.811104,15.12502928,.0002644,97.6999,243.6804,64.6020,295.5484,0,U,60576,999,9914,.72058E-3,.12492E-3,0
LEMUR-2-LLOYD,2024-149DP,2026-06-07T18:13:57.419040,15.09060098,.0004439,97.6742,239.8852,163.1284,197.0093,0,U,60577,999,9897,.6758E-3,.10647E-3,0
LEMUR-2-SQUIRRELCOMM,2024-149DQ,2026-06-07T18:15:55.687680,15.07048573,.000692,97.6713,239.7030,87.6413,272.5606,0,U,60578,999,9898,.45579E-3,.6776E-4,0
LEMUR-2-SIERRINI,2024-149DR,2026-06-07T17:55:55.136352,15.10750316,.0005022,97.6837,241.2995,192.0084,168.1026,0,U,60579,999,9903,.67582E-3,.11156E-3,0
LEMUR-2-WILSON,2025-009CP,2026-06-07T17:24:47.543328,14.95128451,.0004668,97.7026,237.3568,77.1388,283.0354,0,U,62694,999,7594,.21538E-3,.2306E-4,0
LEMUR-2-STAR-FOX,2025-009CR,2026-06-07T16:51:05.574240,15.02362477,.0002784,97.6944,240.3798,136.0060,224.1387,0,U,62696,999,7613,.70199E-3,.9234E-4,0
LEMUR-2-ARIANNA,2025-009CU,2026-06-07T12:00:47.792160,15.02339837,.0003072,97.6880,239.9616,144.1666,215.9765,0,U,62699,999,7610,.70684E-3,.9293E-4,0
